<?xml version="1.0"?>
<gpx xmlns:xsd="http://www.w3.org/2001/XMLSchema" version="1.1" xmlns="http://www.topografix.com/GPX/1/1">
  <trk>
    <name>AIS SEAM TEST</name>
    <extensions>
      <guid>35baa3db-46b7-11ee-864c-60a44cb07e3b</guid>
    </extensions>
    <trkseg>
      <trkpt lat="-16.6874148999964" lon="-151.4520782000000">
        <time>2023-08-29T21:57:38.93748Z</time>
      </trkpt>
      <trkpt lat="-16.6873148999964" lon="-151.4519482000000">
        <time>2023-08-29T21:57:40.13748Z</time>
      </trkpt>
      <trkpt lat="-16.6872148999964" lon="-151.4518182000000">
        <time>2023-08-29T21:57:41.33748Z</time>
      </trkpt>
      <trkpt lat="-16.6871148999964" lon="-151.4516882000000">
        <time>2023-08-29T21:57:42.53748Z</time>
      </trkpt>
      <trkpt lat="-16.6870148999964" lon="-151.4515582000000">
        <time>2023-08-29T21:57:43.73748Z</time>
      </trkpt>
      <trkpt lat="-16.6869148999964" lon="-151.4514282000000">
        <time>2023-08-29T21:57:44.93748Z</time>
      </trkpt>
      <trkpt lat="-16.6868148999964" lon="-151.4512982000000">
        <time>2023-08-29T21:57:46.13748Z</time>
      </trkpt>
      <trkpt lat="-16.6867148999964" lon="-151.4511682000000">
        <time>2023-08-29T21:57:47.33748Z</time>
      </trkpt>
      <trkpt lat="-16.6866148999964" lon="-151.4510382000000">
        <time>2023-08-29T21:57:48.53748Z</time>
      </trkpt>
      <trkpt lat="-16.6865148999964" lon="-151.4509082000000">
        <time>2023-08-29T21:57:49.73748Z</time>
      </trkpt>
      <trkpt lat="-16.6864148999964" lon="-151.4507782000000">
        <time>2023-08-29T21:57:50.93748Z</time>
      </trkpt>
      <trkpt lat="-16.6863148999964" lon="-151.4506482000000">
        <time>2023-08-29T21:57:52.13748Z</time>
      </trkpt>
      <trkpt lat="-16.6862148999964" lon="-151.4505182000000">
        <time>2023-08-29T21:57:53.33748Z</time>
      </trkpt>
      <trkpt lat="-16.6861148999964" lon="-151.4503882000000">
        <time>2023-08-29T21:57:54.53748Z</time>
      </trkpt>
      <trkpt lat="-16.6860148999964" lon="-151.4502582000000">
        <time>2023-08-29T21:57:55.73748Z</time>
      </trkpt>
      <trkpt lat="-16.6859148999964" lon="-151.4501282000000">
        <time>2023-08-29T21:57:56.93748Z</time>
      </trkpt>
      <trkpt lat="-16.6858148999964" lon="-151.4499982000000">
        <time>2023-08-29T21:57:58.13748Z</time>
      </trkpt>
      <trkpt lat="-16.6857148999964" lon="-151.4498682000000">
        <time>2023-08-29T21:57:59.33748Z</time>
      </trkpt>
      <trkpt lat="-16.6856148999964" lon="-151.4497382000000">
        <time>2023-08-29T21:58:00.53748Z</time>
      </trkpt>
      <trkpt lat="-16.6855148999964" lon="-151.4496082000000">
        <time>2023-08-29T21:58:01.73748Z</time>
      </trkpt>
      <trkpt lat="-16.6854148999964" lon="-151.4494782000000">
        <time>2023-08-29T21:58:02.93748Z</time>
      </trkpt>
      <trkpt lat="-16.6853148999964" lon="-151.4493482000000">
        <time>2023-08-29T21:58:04.13748Z</time>
      </trkpt>
      <trkpt lat="-16.6852148999964" lon="-151.4492182000000">
        <time>2023-08-29T21:58:05.33748Z</time>
      </trkpt>
      <trkpt lat="-16.6851148999964" lon="-151.4490882000000">
        <time>2023-08-29T21:58:06.53748Z</time>
      </trkpt>
      <trkpt lat="-16.6850148999964" lon="-151.4489582000000">
        <time>2023-08-29T21:58:07.73748Z</time>
      </trkpt>
      <trkpt lat="-16.6849148999964" lon="-151.4488282000000">
        <time>2023-08-29T21:58:08.93748Z</time>
      </trkpt>
      <trkpt lat="-16.6848148999964" lon="-151.4486982000000">
        <time>2023-08-29T21:58:10.13748Z</time>
      </trkpt>
      <trkpt lat="-16.6847148999964" lon="-151.4485682000000">
        <time>2023-08-29T21:58:11.33748Z</time>
      </trkpt>
      <trkpt lat="-16.6846148999964" lon="-151.4484382000000">
        <time>2023-08-29T21:58:12.53748Z</time>
      </trkpt>
      <trkpt lat="-16.6845148999964" lon="-151.4483082000000">
        <time>2023-08-29T21:58:13.73748Z</time>
      </trkpt>
      <trkpt lat="-16.6844148999964" lon="-151.4481782000000">
        <time>2023-08-29T21:58:14.93748Z</time>
      </trkpt>
      <trkpt lat="-16.6843148999964" lon="-151.4480482000000">
        <time>2023-08-29T21:58:16.13748Z</time>
      </trkpt>
      <trkpt lat="-16.6842148999964" lon="-151.4479182000000">
        <time>2023-08-29T21:58:17.33748Z</time>
      </trkpt>
      <trkpt lat="-16.6841148999964" lon="-151.4477882000000">
        <time>2023-08-29T21:58:18.53748Z</time>
      </trkpt>
      <trkpt lat="-16.6840148999964" lon="-151.4476582000000">
        <time>2023-08-29T21:58:19.73748Z</time>
      </trkpt>
      <trkpt lat="-16.6839148999964" lon="-151.4475282000000">
        <time>2023-08-29T21:58:20.93748Z</time>
      </trkpt>
      <trkpt lat="-16.6838148999964" lon="-151.4473982000000">
        <time>2023-08-29T21:58:22.13748Z</time>
      </trkpt>
      <trkpt lat="-16.6837148999964" lon="-151.4472682000000">
        <time>2023-08-29T21:58:23.33748Z</time>
      </trkpt>
      <trkpt lat="-16.6836148999964" lon="-151.4471382000000">
        <time>2023-08-29T21:58:24.53748Z</time>
      </trkpt>
      <trkpt lat="-16.6835148999964" lon="-151.4470082000000">
        <time>2023-08-29T21:58:25.73748Z</time>
      </trkpt>
      <trkpt lat="-16.6834148999964" lon="-151.4468782000000">
        <time>2023-08-29T21:58:26.93748Z</time>
      </trkpt>
      <trkpt lat="-16.6833148999964" lon="-151.4467482000000">
        <time>2023-08-29T21:58:28.13748Z</time>
      </trkpt>
      <trkpt lat="-16.6832148999964" lon="-151.4466182000000">
        <time>2023-08-29T21:58:29.33748Z</time>
      </trkpt>
      <trkpt lat="-16.6831148999964" lon="-151.4464882000000">
        <time>2023-08-29T21:58:30.53748Z</time>
      </trkpt>
      <trkpt lat="-16.6830148999964" lon="-151.4463582000000">
        <time>2023-08-29T21:58:31.73748Z</time>
      </trkpt>
      <trkpt lat="-16.6829148999964" lon="-151.4462282000000">
        <time>2023-08-29T21:58:32.93748Z</time>
      </trkpt>
      <trkpt lat="-16.6828148999964" lon="-151.4460982000000">
        <time>2023-08-29T21:58:34.13748Z</time>
      </trkpt>
      <trkpt lat="-16.6827148999964" lon="-151.4459682000000">
        <time>2023-08-29T21:58:35.33748Z</time>
      </trkpt>
      <trkpt lat="-16.6826148999964" lon="-151.4458382000000">
        <time>2023-08-29T21:58:36.53748Z</time>
      </trkpt>
      <trkpt lat="-16.6825148999964" lon="-151.4457082000000">
        <time>2023-08-29T21:58:37.73748Z</time>
      </trkpt>
      <trkpt lat="-16.6824148999964" lon="-151.4455782000000">
        <time>2023-08-29T21:58:38.93748Z</time>
      </trkpt>
      <trkpt lat="-16.6823148999964" lon="-151.4454482000000">
        <time>2023-08-29T21:58:40.13748Z</time>
      </trkpt>
      <trkpt lat="-16.6822148999964" lon="-151.4453182000000">
        <time>2023-08-29T21:58:41.33748Z</time>
      </trkpt>
      <trkpt lat="-16.6821148999964" lon="-151.4451882000000">
        <time>2023-08-29T21:58:42.53748Z</time>
      </trkpt>
      <trkpt lat="-16.6820148999964" lon="-151.4450582000000">
        <time>2023-08-29T21:58:43.73748Z</time>
      </trkpt>
      <trkpt lat="-16.6819148999964" lon="-151.4449282000000">
        <time>2023-08-29T21:58:44.93748Z</time>
      </trkpt>
      <trkpt lat="-16.6818148999964" lon="-151.4447982000000">
        <time>2023-08-29T21:58:46.13748Z</time>
      </trkpt>
      <trkpt lat="-16.6817148999964" lon="-151.4446682000000">
        <time>2023-08-29T21:58:47.33748Z</time>
      </trkpt>
      <trkpt lat="-16.6816148999964" lon="-151.4445382000000">
        <time>2023-08-29T21:58:48.53748Z</time>
      </trkpt>
      <trkpt lat="-16.6815148999964" lon="-151.4444082000000">
        <time>2023-08-29T21:58:49.73748Z</time>
      </trkpt>
      <trkpt lat="-16.6814148999964" lon="-151.4442782000000">
        <time>2023-08-29T21:58:50.93748Z</time>
      </trkpt>
      <trkpt lat="-16.6813148999964" lon="-151.4441482000000">
        <time>2023-08-29T21:58:52.13748Z</time>
      </trkpt>
      <trkpt lat="-16.6812148999964" lon="-151.4440182000000">
        <time>2023-08-29T21:58:53.33748Z</time>
      </trkpt>
      <trkpt lat="-16.6811148999964" lon="-151.4438882000000">
        <time>2023-08-29T21:58:54.53748Z</time>
      </trkpt>
      <trkpt lat="-16.6810148999964" lon="-151.4437582000000">
        <time>2023-08-29T21:58:55.73748Z</time>
      </trkpt>
      <trkpt lat="-16.6809148999964" lon="-151.4436282000000">
        <time>2023-08-29T21:58:56.93748Z</time>
      </trkpt>
      <trkpt lat="-16.6808148999964" lon="-151.4434982000000">
        <time>2023-08-29T21:58:58.13748Z</time>
      </trkpt>
      <trkpt lat="-16.6807148999964" lon="-151.4433682000000">
        <time>2023-08-29T21:58:59.33748Z</time>
      </trkpt>
      <trkpt lat="-16.6806148999964" lon="-151.4432382000000">
        <time>2023-08-29T21:59:00.53748Z</time>
      </trkpt>
      <trkpt lat="-16.6805148999964" lon="-151.4431082000000">
        <time>2023-08-29T21:59:01.73748Z</time>
      </trkpt>
      <trkpt lat="-16.6804148999964" lon="-151.4429782000000">
        <time>2023-08-29T21:59:02.93748Z</time>
      </trkpt>
      <trkpt lat="-16.6803148999964" lon="-151.4428482000000">
        <time>2023-08-29T21:59:04.13748Z</time>
      </trkpt>
      <trkpt lat="-16.6802148999964" lon="-151.4427182000000">
        <time>2023-08-29T21:59:05.33748Z</time>
      </trkpt>
      <trkpt lat="-16.6801148999964" lon="-151.4425882000000">
        <time>2023-08-29T21:59:06.53748Z</time>
      </trkpt>
      <trkpt lat="-16.6800148999964" lon="-151.4424582000000">
        <time>2023-08-29T21:59:07.73748Z</time>
      </trkpt>
      <trkpt lat="-16.6799148999964" lon="-151.4423282000000">
        <time>2023-08-29T21:59:08.93748Z</time>
      </trkpt>
      <trkpt lat="-16.6798148999964" lon="-151.4421982000000">
        <time>2023-08-29T21:59:10.13748Z</time>
      </trkpt>
      <trkpt lat="-16.6797148999964" lon="-151.4420682000000">
        <time>2023-08-29T21:59:11.33748Z</time>
      </trkpt>
      <trkpt lat="-16.6796148999964" lon="-151.4419382000000">
        <time>2023-08-29T21:59:12.53748Z</time>
      </trkpt>
      <trkpt lat="-16.6795148999964" lon="-151.4418082000000">
        <time>2023-08-29T21:59:13.73748Z</time>
      </trkpt>
      <trkpt lat="-16.6794148999964" lon="-151.4416782000000">
        <time>2023-08-29T21:59:14.93748Z</time>
      </trkpt>
      <trkpt lat="-16.6793148999964" lon="-151.4415482000000">
        <time>2023-08-29T21:59:16.13748Z</time>
      </trkpt>
      <trkpt lat="-16.6792148999964" lon="-151.4414182000000">
        <time>2023-08-29T21:59:17.33748Z</time>
      </trkpt>
      <trkpt lat="-16.6791148999964" lon="-151.4412882000000">
        <time>2023-08-29T21:59:18.53748Z</time>
      </trkpt>
      <trkpt lat="-16.6790148999964" lon="-151.4411582000000">
        <time>2023-08-29T21:59:19.73748Z</time>
      </trkpt>
      <trkpt lat="-16.6789148999964" lon="-151.4410282000000">
        <time>2023-08-29T21:59:20.93748Z</time>
      </trkpt>
      <trkpt lat="-16.6788148999964" lon="-151.4408982000000">
        <time>2023-08-29T21:59:22.13748Z</time>
      </trkpt>
      <trkpt lat="-16.6787148999964" lon="-151.4407682000000">
        <time>2023-08-29T21:59:23.33748Z</time>
      </trkpt>
      <trkpt lat="-16.6786148999964" lon="-151.4406382000000">
        <time>2023-08-29T21:59:24.53748Z</time>
      </trkpt>
      <trkpt lat="-16.6785148999964" lon="-151.4405082000000">
        <time>2023-08-29T21:59:25.73748Z</time>
      </trkpt>
      <trkpt lat="-16.6784148999964" lon="-151.4403782000000">
        <time>2023-08-29T21:59:26.93748Z</time>
      </trkpt>
      <trkpt lat="-16.6783148999964" lon="-151.4402482000000">
        <time>2023-08-29T21:59:28.13748Z</time>
      </trkpt>
      <trkpt lat="-16.6782148999964" lon="-151.4401182000000">
        <time>2023-08-29T21:59:29.33748Z</time>
      </trkpt>
      <trkpt lat="-16.6781148999964" lon="-151.4399882000000">
        <time>2023-08-29T21:59:30.53748Z</time>
      </trkpt>
      <trkpt lat="-16.6780148999964" lon="-151.4398582000000">
        <time>2023-08-29T21:59:31.73748Z</time>
      </trkpt>
      <trkpt lat="-16.6779148999964" lon="-151.4397282000000">
        <time>2023-08-29T21:59:32.93748Z</time>
      </trkpt>
      <trkpt lat="-16.6778148999964" lon="-151.4395982000000">
        <time>2023-08-29T21:59:34.13748Z</time>
      </trkpt>
      <trkpt lat="-16.6777148999964" lon="-151.4394682000000">
        <time>2023-08-29T21:59:35.33748Z</time>
      </trkpt>
      <trkpt lat="-16.6776148999964" lon="-151.4393382000000">
        <time>2023-08-29T21:59:36.53748Z</time>
      </trkpt>
      <trkpt lat="-16.6775148999964" lon="-151.4392082000000">
        <time>2023-08-29T21:59:37.73748Z</time>
      </trkpt>
      <trkpt lat="-16.6774148999964" lon="-151.4390782000000">
        <time>2023-08-29T21:59:38.93748Z</time>
      </trkpt>
      <trkpt lat="-16.6773148999964" lon="-151.4389482000000">
        <time>2023-08-29T21:59:40.13748Z</time>
      </trkpt>
      <trkpt lat="-16.6772148999964" lon="-151.4388182000000">
        <time>2023-08-29T21:59:41.33748Z</time>
      </trkpt>
      <trkpt lat="-16.6771148999964" lon="-151.4386882000000">
        <time>2023-08-29T21:59:42.53748Z</time>
      </trkpt>
      <trkpt lat="-16.6770148999964" lon="-151.4385582000000">
        <time>2023-08-29T21:59:43.73748Z</time>
      </trkpt>
      <trkpt lat="-16.6769148999964" lon="-151.4384282000000">
        <time>2023-08-29T21:59:44.93748Z</time>
      </trkpt>
      <trkpt lat="-16.6768148999964" lon="-151.4382982000000">
        <time>2023-08-29T21:59:46.13748Z</time>
      </trkpt>
      <trkpt lat="-16.6767148999964" lon="-151.4381682000000">
        <time>2023-08-29T21:59:47.33748Z</time>
      </trkpt>
      <trkpt lat="-16.6766148999964" lon="-151.4380382000000">
        <time>2023-08-29T21:59:48.53748Z</time>
      </trkpt>
      <trkpt lat="-16.6765148999964" lon="-151.4379082000000">
        <time>2023-08-29T21:59:49.73748Z</time>
      </trkpt>
      <trkpt lat="-16.6764148999964" lon="-151.4377782000000">
        <time>2023-08-29T21:59:50.93748Z</time>
      </trkpt>
      <trkpt lat="-16.6763148999964" lon="-151.4376482000000">
        <time>2023-08-29T21:59:52.13748Z</time>
      </trkpt>
      <trkpt lat="-16.6762148999964" lon="-151.4375182000000">
        <time>2023-08-29T21:59:53.33748Z</time>
      </trkpt>
      <trkpt lat="-16.6761148999964" lon="-151.4373882000000">
        <time>2023-08-29T21:59:54.53748Z</time>
      </trkpt>
      <trkpt lat="-16.6760148999964" lon="-151.4372582000000">
        <time>2023-08-29T21:59:55.73748Z</time>
      </trkpt>
      <trkpt lat="-16.6759148999964" lon="-151.4371282000000">
        <time>2023-08-29T21:59:56.93748Z</time>
      </trkpt>
      <trkpt lat="-16.6758148999964" lon="-151.4369982000000">
        <time>2023-08-29T21:59:58.13748Z</time>
      </trkpt>
      <trkpt lat="-16.6757148999964" lon="-151.4368682000000">
        <time>2023-08-29T21:59:59.33748Z</time>
      </trkpt>
      <trkpt lat="-16.6756148999964" lon="-151.4367382000000">
        <time>2023-08-29T22:00:00.53748Z</time>
      </trkpt>
      <trkpt lat="-16.6755148999964" lon="-151.4366082000000">
        <time>2023-08-29T22:00:01.73748Z</time>
      </trkpt>
      <trkpt lat="-16.6754148999964" lon="-151.4364782000000">
        <time>2023-08-29T22:00:02.93748Z</time>
      </trkpt>
      <trkpt lat="-16.6753148999964" lon="-151.4363482000000">
        <time>2023-08-29T22:00:04.13748Z</time>
      </trkpt>
      <trkpt lat="-16.6752148999964" lon="-151.4362182000000">
        <time>2023-08-29T22:00:05.33748Z</time>
      </trkpt>
      <trkpt lat="-16.6751148999964" lon="-151.4360882000000">
        <time>2023-08-29T22:00:06.53748Z</time>
      </trkpt>
      <trkpt lat="-16.6750148999964" lon="-151.4359582000000">
        <time>2023-08-29T22:00:07.73748Z</time>
      </trkpt>
      <trkpt lat="-16.6749148999964" lon="-151.4358282000000">
        <time>2023-08-29T22:00:08.93748Z</time>
      </trkpt>
      <trkpt lat="-16.6748148999964" lon="-151.4356982000000">
        <time>2023-08-29T22:00:10.13748Z</time>
      </trkpt>
      <trkpt lat="-16.6747148999964" lon="-151.4355682000000">
        <time>2023-08-29T22:00:11.33748Z</time>
      </trkpt>
      <trkpt lat="-16.6746148999964" lon="-151.4354382000000">
        <time>2023-08-29T22:00:12.53748Z</time>
      </trkpt>
      <trkpt lat="-16.6745148999964" lon="-151.4353082000000">
        <time>2023-08-29T22:00:13.73748Z</time>
      </trkpt>
      <trkpt lat="-16.6744148999964" lon="-151.4351782000000">
        <time>2023-08-29T22:00:14.93748Z</time>
      </trkpt>
      <trkpt lat="-16.6743148999964" lon="-151.4350482000000">
        <time>2023-08-29T22:00:16.13748Z</time>
      </trkpt>
      <trkpt lat="-16.6742148999964" lon="-151.4349182000000">
        <time>2023-08-29T22:00:17.33748Z</time>
      </trkpt>
      <trkpt lat="-16.6741148999964" lon="-151.4347882000000">
        <time>2023-08-29T22:00:18.53748Z</time>
      </trkpt>
      <trkpt lat="-16.6740148999964" lon="-151.4346582000000">
        <time>2023-08-29T22:00:19.73748Z</time>
      </trkpt>
      <trkpt lat="-16.6739148999964" lon="-151.4345282000000">
        <time>2023-08-29T22:00:20.93748Z</time>
      </trkpt>
      <trkpt lat="-16.6738148999964" lon="-151.4343982000000">
        <time>2023-08-29T22:00:22.13748Z</time>
      </trkpt>
      <trkpt lat="-16.6737148999964" lon="-151.4342682000000">
        <time>2023-08-29T22:00:23.33748Z</time>
      </trkpt>
      <trkpt lat="-16.6736148999964" lon="-151.4341382000000">
        <time>2023-08-29T22:00:24.53748Z</time>
      </trkpt>
      <trkpt lat="-16.6735148999964" lon="-151.4340082000000">
        <time>2023-08-29T22:00:25.73748Z</time>
      </trkpt>
      <trkpt lat="-16.6734148999964" lon="-151.4338782000000">
        <time>2023-08-29T22:00:26.93748Z</time>
      </trkpt>
      <trkpt lat="-16.6733148999964" lon="-151.4337482000000">
        <time>2023-08-29T22:00:28.13748Z</time>
      </trkpt>
      <trkpt lat="-16.6732148999964" lon="-151.4336182000000">
        <time>2023-08-29T22:00:29.33748Z</time>
      </trkpt>
      <trkpt lat="-16.6731148999964" lon="-151.4334882000000">
        <time>2023-08-29T22:00:30.53748Z</time>
      </trkpt>
      <trkpt lat="-16.6730148999964" lon="-151.4333582000000">
        <time>2023-08-29T22:00:31.73748Z</time>
      </trkpt>
      <trkpt lat="-16.6729148999964" lon="-151.4332282000000">
        <time>2023-08-29T22:00:32.93748Z</time>
      </trkpt>
      <trkpt lat="-16.6728148999964" lon="-151.4330982000000">
        <time>2023-08-29T22:00:34.13748Z</time>
      </trkpt>
      <trkpt lat="-16.6727148999964" lon="-151.4329682000000">
        <time>2023-08-29T22:00:35.33748Z</time>
      </trkpt>
      <trkpt lat="-16.6726148999964" lon="-151.4328382000000">
        <time>2023-08-29T22:00:36.53748Z</time>
      </trkpt>
      <trkpt lat="-16.6725148999964" lon="-151.4327082000000">
        <time>2023-08-29T22:00:37.73748Z</time>
      </trkpt>
      <trkpt lat="-16.6724148999964" lon="-151.4325782000000">
        <time>2023-08-29T22:00:37.71348Z</time>
      </trkpt>
      <trkpt lat="-16.6723148999964" lon="-151.4324482000000">
        <time>2023-08-29T22:00:40.13748Z</time>
      </trkpt>
      <trkpt lat="-16.6722148999964" lon="-151.4323182000000">
        <time>2023-08-29T22:00:41.33748Z</time>
      </trkpt>
      <trkpt lat="-16.6721148999964" lon="-151.4321882000000">
        <time>2023-08-29T22:00:42.53748Z</time>
      </trkpt>
      <trkpt lat="-16.6720148999964" lon="-151.4320582000000">
        <time>2023-08-29T22:00:43.73748Z</time>
      </trkpt>
      <trkpt lat="-16.6719148999964" lon="-151.4319282000000">
        <time>2023-08-29T22:00:44.93748Z</time>
      </trkpt>
      <trkpt lat="-16.6718148999964" lon="-151.4317982000000">
        <time>2023-08-29T22:00:46.13748Z</time>
      </trkpt>
      <trkpt lat="-16.6717148999964" lon="-151.4316682000000">
        <time>2023-08-29T22:00:47.33748Z</time>
      </trkpt>
      <trkpt lat="-16.6716148999964" lon="-151.4315382000000">
        <time>2023-08-29T22:00:48.53748Z</time>
      </trkpt>
      <trkpt lat="-16.6715148999964" lon="-151.4314082000000">
        <time>2023-08-29T22:00:49.73748Z</time>
      </trkpt>
      <trkpt lat="-16.6714148999964" lon="-151.4312782000000">
        <time>2023-08-29T22:00:50.93748Z</time>
      </trkpt>
      <trkpt lat="-16.6713148999964" lon="-151.4311482000000">
        <time>2023-08-29T22:00:52.13748Z</time>
      </trkpt>
      <trkpt lat="-16.6712148999964" lon="-151.4310182000000">
        <time>2023-08-29T22:00:53.33748Z</time>
      </trkpt>
      <trkpt lat="-16.6711148999964" lon="-151.4308882000000">
        <time>2023-08-29T22:00:54.53748Z</time>
      </trkpt>
      <trkpt lat="-16.6710148999964" lon="-151.4307582000000">
        <time>2023-08-29T22:00:55.73748Z</time>
      </trkpt>
      <trkpt lat="-16.6709148999964" lon="-151.4306282000000">
        <time>2023-08-29T22:00:56.93748Z</time>
      </trkpt>
      <trkpt lat="-16.6708148999964" lon="-151.4304982000000">
        <time>2023-08-29T22:00:58.13748Z</time>
      </trkpt>
      <trkpt lat="-16.6707148999964" lon="-151.4303682000000">
        <time>2023-08-29T22:00:59.33748Z</time>
      </trkpt>
      <trkpt lat="-16.6706148999964" lon="-151.4302382000000">
        <time>2023-08-29T22:01:00.53748Z</time>
      </trkpt>
      <trkpt lat="-16.6705148999964" lon="-151.4301082000000">
        <time>2023-08-29T22:01:01.73748Z</time>
      </trkpt>
      <trkpt lat="-16.6704148999964" lon="-151.4299782000000">
        <time>2023-08-29T22:01:02.93748Z</time>
      </trkpt>
      <trkpt lat="-16.6703148999964" lon="-151.4298482000000">
        <time>2023-08-29T22:01:04.13748Z</time>
      </trkpt>
      <trkpt lat="-16.6702148999964" lon="-151.4297182000000">
        <time>2023-08-29T22:01:05.33748Z</time>
      </trkpt>
      <trkpt lat="-16.6701148999964" lon="-151.4295882000000">
        <time>2023-08-29T22:01:06.53748Z</time>
      </trkpt>
      <trkpt lat="-16.6700148999964" lon="-151.4294582000000">
        <time>2023-08-29T22:01:07.73748Z</time>
      </trkpt>
      <trkpt lat="-16.6699148999964" lon="-151.4293282000000">
        <time>2023-08-29T22:01:08.93748Z</time>
      </trkpt>
      <trkpt lat="-16.6698148999964" lon="-151.4291982000000">
        <time>2023-08-29T22:01:10.13748Z</time>
      </trkpt>
      <trkpt lat="-16.6697148999964" lon="-151.4290682000000">
        <time>2023-08-29T22:01:11.33748Z</time>
      </trkpt>
      <trkpt lat="-16.6696148999964" lon="-151.4289382000000">
        <time>2023-08-29T22:01:12.53748Z</time>
      </trkpt>
      <trkpt lat="-16.6695148999964" lon="-151.4288082000000">
        <time>2023-08-29T22:01:13.73748Z</time>
      </trkpt>
      <trkpt lat="-16.6694148999964" lon="-151.4286782000000">
        <time>2023-08-29T22:01:14.93748Z</time>
      </trkpt>
      <trkpt lat="-16.6693148999964" lon="-151.4285482000000">
        <time>2023-08-29T22:01:16.13748Z</time>
      </trkpt>
      <trkpt lat="-16.6692148999964" lon="-151.4284182000000">
        <time>2023-08-29T22:01:17.33748Z</time>
      </trkpt>
      <trkpt lat="-16.6691148999964" lon="-151.4282882000000">
        <time>2023-08-29T22:01:18.53748Z</time>
      </trkpt>
      <trkpt lat="-16.6690148999964" lon="-151.4281582000000">
        <time>2023-08-29T22:01:19.73748Z</time>
      </trkpt>
      <trkpt lat="-16.6689148999964" lon="-151.4280282000000">
        <time>2023-08-29T22:01:20.93748Z</time>
      </trkpt>
      <trkpt lat="-16.6688148999964" lon="-151.4278982000000">
        <time>2023-08-29T22:01:22.13748Z</time>
      </trkpt>
      <trkpt lat="-16.6687148999964" lon="-151.4277682000000">
        <time>2023-08-29T22:01:23.33748Z</time>
      </trkpt>
      <trkpt lat="-16.6686148999964" lon="-151.4276382000000">
        <time>2023-08-29T22:01:24.53748Z</time>
      </trkpt>
      <trkpt lat="-16.6685148999964" lon="-151.4275082000000">
        <time>2023-08-29T22:01:25.73748Z</time>
      </trkpt>
      <trkpt lat="-16.6684148999964" lon="-151.4273782000000">
        <time>2023-08-29T22:01:26.93748Z</time>
      </trkpt>
      <trkpt lat="-16.6683148999964" lon="-151.4272482000000">
        <time>2023-08-29T22:01:28.13748Z</time>
      </trkpt>
      <trkpt lat="-16.6682148999964" lon="-151.4271182000000">
        <time>2023-08-29T22:01:29.33748Z</time>
      </trkpt>
      <trkpt lat="-16.6681148999964" lon="-151.4269882000000">
        <time>2023-08-29T22:01:30.53748Z</time>
      </trkpt>
      <trkpt lat="-16.6680148999964" lon="-151.4268582000000">
        <time>2023-08-29T22:01:31.73748Z</time>
      </trkpt>
      <trkpt lat="-16.6679148999964" lon="-151.4267282000000">
        <time>2023-08-29T22:01:32.93748Z</time>
      </trkpt>
      <trkpt lat="-16.6678148999964" lon="-151.4265982000000">
        <time>2023-08-29T22:01:34.13748Z</time>
      </trkpt>
      <trkpt lat="-16.6677148999964" lon="-151.4264682000000">
        <time>2023-08-29T22:01:35.33748Z</time>
      </trkpt>
      <trkpt lat="-16.6676148999964" lon="-151.4263382000000">
        <time>2023-08-29T22:01:36.53748Z</time>
      </trkpt>
      <trkpt lat="-16.6675148999964" lon="-151.4262082000000">
        <time>2023-08-29T22:01:37.73748Z</time>
      </trkpt>
      <trkpt lat="-16.6674148999964" lon="-151.4260782000000">
        <time>2023-08-29T22:01:38.93748Z</time>
      </trkpt>
      <trkpt lat="-16.6673148999964" lon="-151.4259482000000">
        <time>2023-08-29T22:01:40.13748Z</time>
      </trkpt>
      <trkpt lat="-16.6672148999964" lon="-151.4258182000000">
        <time>2023-08-29T22:01:41.33748Z</time>
      </trkpt>
      <trkpt lat="-16.6671148999964" lon="-151.4256882000000">
        <time>2023-08-29T22:01:42.53748Z</time>
      </trkpt>
      <trkpt lat="-16.6670148999964" lon="-151.4255582000000">
        <time>2023-08-29T22:01:43.73748Z</time>
      </trkpt>
      <trkpt lat="-16.6669148999964" lon="-151.4254282000000">
        <time>2023-08-29T22:01:44.93748Z</time>
      </trkpt>
      <trkpt lat="-16.6668148999964" lon="-151.4252982000000">
        <time>2023-08-29T22:01:46.13748Z</time>
      </trkpt>
      <trkpt lat="-16.6667148999964" lon="-151.4251682000000">
        <time>2023-08-29T22:01:47.33748Z</time>
      </trkpt>
      <trkpt lat="-16.6666148999964" lon="-151.4250382000000">
        <time>2023-08-29T22:01:48.53748Z</time>
      </trkpt>
      <trkpt lat="-16.6665148999964" lon="-151.4249082000000">
        <time>2023-08-29T22:01:49.73748Z</time>
      </trkpt>
      <trkpt lat="-16.6664148999964" lon="-151.4247782000000">
        <time>2023-08-29T22:01:50.93748Z</time>
      </trkpt>
      <trkpt lat="-16.6663148999964" lon="-151.4246482000000">
        <time>2023-08-29T22:01:52.13748Z</time>
      </trkpt>
      <trkpt lat="-16.6662148999964" lon="-151.4245182000000">
        <time>2023-08-29T22:01:53.33748Z</time>
      </trkpt>
      <trkpt lat="-16.6661148999964" lon="-151.4243882000000">
        <time>2023-08-29T22:01:54.53748Z</time>
      </trkpt>
      <trkpt lat="-16.6660148999964" lon="-151.4242582000000">
        <time>2023-08-29T22:01:55.73748Z</time>
      </trkpt>
      <trkpt lat="-16.6659148999964" lon="-151.4241282000000">
        <time>2023-08-29T22:01:56.93748Z</time>
      </trkpt>
      <trkpt lat="-16.6658148999964" lon="-151.4239982000000">
        <time>2023-08-29T22:01:58.13748Z</time>
      </trkpt>
      <trkpt lat="-16.6657148999964" lon="-151.4238682000000">
        <time>2023-08-29T22:01:59.33748Z</time>
      </trkpt>
      <trkpt lat="-16.6656148999964" lon="-151.4237382000000">
        <time>2023-08-29T22:02:00.53748Z</time>
      </trkpt>
      <trkpt lat="-16.6655148999964" lon="-151.4236082000000">
        <time>2023-08-29T22:02:01.73748Z</time>
      </trkpt>
      <trkpt lat="-16.6654148999964" lon="-151.4234782000000">
        <time>2023-08-29T22:02:02.93748Z</time>
      </trkpt>
      <trkpt lat="-16.6653148999964" lon="-151.4233482000000">
        <time>2023-08-29T22:02:04.13748Z</time>
      </trkpt>
      <trkpt lat="-16.6652148999964" lon="-151.4232182000000">
        <time>2023-08-29T22:02:05.33748Z</time>
      </trkpt>
      <trkpt lat="-16.6651148999964" lon="-151.4230882000000">
        <time>2023-08-29T22:02:06.53748Z</time>
      </trkpt>
      <trkpt lat="-16.6650148999964" lon="-151.4229582000000">
        <time>2023-08-29T22:02:07.73748Z</time>
      </trkpt>
      <trkpt lat="-16.6649148999964" lon="-151.4228282000000">
        <time>2023-08-29T22:02:08.93748Z</time>
      </trkpt>
      <trkpt lat="-16.6648148999964" lon="-151.4226982000000">
        <time>2023-08-29T22:02:10.13748Z</time>
      </trkpt>
      <trkpt lat="-16.6647148999964" lon="-151.4225682000000">
        <time>2023-08-29T22:02:11.33748Z</time>
      </trkpt>
      <trkpt lat="-16.6646148999964" lon="-151.4224382000000">
        <time>2023-08-29T22:02:12.53748Z</time>
      </trkpt>
      <trkpt lat="-16.6645148999964" lon="-151.4223082000000">
        <time>2023-08-29T22:02:13.73748Z</time>
      </trkpt>
      <trkpt lat="-16.6644148999964" lon="-151.4221782000000">
        <time>2023-08-29T22:02:14.93748Z</time>
      </trkpt>
      <trkpt lat="-16.6643148999964" lon="-151.4220482000000">
        <time>2023-08-29T22:02:16.13748Z</time>
      </trkpt>
      <trkpt lat="-16.6642148999964" lon="-151.4219182000000">
        <time>2023-08-29T22:02:17.33748Z</time>
      </trkpt>
      <trkpt lat="-16.6641148999964" lon="-151.4217882000000">
        <time>2023-08-29T22:02:18.53748Z</time>
      </trkpt>
      <trkpt lat="-16.6640148999964" lon="-151.4216582000000">
        <time>2023-08-29T22:02:19.73748Z</time>
      </trkpt>
      <trkpt lat="-16.6639148999964" lon="-151.4215282000000">
        <time>2023-08-29T22:02:20.93748Z</time>
      </trkpt>
      <trkpt lat="-16.6638148999964" lon="-151.4213982000000">
        <time>2023-08-29T22:02:22.13748Z</time>
      </trkpt>
      <trkpt lat="-16.6637148999964" lon="-151.4212682000000">
        <time>2023-08-29T22:02:23.33748Z</time>
      </trkpt>
      <trkpt lat="-16.6636148999964" lon="-151.4211382000000">
        <time>2023-08-29T22:02:24.53748Z</time>
      </trkpt>
      <trkpt lat="-16.6635148999964" lon="-151.4210082000000">
        <time>2023-08-29T22:02:25.73748Z</time>
      </trkpt>
      <trkpt lat="-16.6634148999964" lon="-151.4208782000000">
        <time>2023-08-29T22:02:26.93748Z</time>
      </trkpt>
      <trkpt lat="-16.6633148999964" lon="-151.4207482000000">
        <time>2023-08-29T22:02:28.13748Z</time>
      </trkpt>
      <trkpt lat="-16.6632148999964" lon="-151.4206182000000">
        <time>2023-08-29T22:02:29.33748Z</time>
      </trkpt>
      <trkpt lat="-16.6631148999964" lon="-151.4204882000000">
        <time>2023-08-29T22:02:30.53748Z</time>
      </trkpt>
      <trkpt lat="-16.6630148999964" lon="-151.4203582000000">
        <time>2023-08-29T22:02:31.73748Z</time>
      </trkpt>
      <trkpt lat="-16.6629148999964" lon="-151.4202282000000">
        <time>2023-08-29T22:02:32.93748Z</time>
      </trkpt>
      <trkpt lat="-16.6628148999964" lon="-151.4200982000000">
        <time>2023-08-29T22:02:34.13748Z</time>
      </trkpt>
      <trkpt lat="-16.6627148999964" lon="-151.4199682000000">
        <time>2023-08-29T22:02:35.33748Z</time>
      </trkpt>
      <trkpt lat="-16.6626148999964" lon="-151.4198382000000">
        <time>2023-08-29T22:02:36.53748Z</time>
      </trkpt>
      <trkpt lat="-16.6625148999964" lon="-151.4197082000000">
        <time>2023-08-29T22:02:37.73748Z</time>
      </trkpt>
      <trkpt lat="-16.6624148999964" lon="-151.4195782000000">
        <time>2023-08-29T22:02:38.93748Z</time>
      </trkpt>
      <trkpt lat="-16.6623148999964" lon="-151.4194482000000">
        <time>2023-08-29T22:02:40.13748Z</time>
      </trkpt>
      <trkpt lat="-16.6622148999964" lon="-151.4193182000000">
        <time>2023-08-29T22:02:41.33748Z</time>
      </trkpt>
      <trkpt lat="-16.6621148999964" lon="-151.4191882000000">
        <time>2023-08-29T22:02:42.53748Z</time>
      </trkpt>
      <trkpt lat="-16.6620148999964" lon="-151.4190582000000">
        <time>2023-08-29T22:02:43.73748Z</time>
      </trkpt>
      <trkpt lat="-16.6619148999964" lon="-151.4189282000000">
        <time>2023-08-29T22:02:44.93748Z</time>
      </trkpt>
      <trkpt lat="-16.6618148999964" lon="-151.4187982000000">
        <time>2023-08-29T22:02:46.13748Z</time>
      </trkpt>
      <trkpt lat="-16.6617148999964" lon="-151.4186682000000">
        <time>2023-08-29T22:02:47.33748Z</time>
      </trkpt>
      <trkpt lat="-16.6616148999964" lon="-151.4185382000000">
        <time>2023-08-29T22:02:48.53748Z</time>
      </trkpt>
      <trkpt lat="-16.6615148999964" lon="-151.4184082000000">
        <time>2023-08-29T22:02:49.73748Z</time>
      </trkpt>
      <trkpt lat="-16.6614148999964" lon="-151.4182782000000">
        <time>2023-08-29T22:02:50.93748Z</time>
      </trkpt>
      <trkpt lat="-16.6613148999964" lon="-151.4181482000000">
        <time>2023-08-29T22:02:52.13748Z</time>
      </trkpt>
      <trkpt lat="-16.6612148999964" lon="-151.4180182000000">
        <time>2023-08-29T22:02:53.33748Z</time>
      </trkpt>
      <trkpt lat="-16.6611148999964" lon="-151.4178882000000">
        <time>2023-08-29T22:02:54.53748Z</time>
      </trkpt>
      <trkpt lat="-16.6610148999964" lon="-151.4177582000000">
        <time>2023-08-29T22:02:55.73748Z</time>
      </trkpt>
      <trkpt lat="-16.6609148999964" lon="-151.4176282000000">
        <time>2023-08-29T22:02:56.93748Z</time>
      </trkpt>
      <trkpt lat="-16.6608148999964" lon="-151.4174982000000">
        <time>2023-08-29T22:02:58.13748Z</time>
      </trkpt>
      <trkpt lat="-16.6607148999964" lon="-151.4173682000000">
        <time>2023-08-29T22:02:59.33748Z</time>
      </trkpt>
      <trkpt lat="-16.6606148999964" lon="-151.4172382000000">
        <time>2023-08-29T22:03:00.53748Z</time>
      </trkpt>
      <trkpt lat="-16.6605148999964" lon="-151.4171082000000">
        <time>2023-08-29T22:03:01.73748Z</time>
      </trkpt>
      <trkpt lat="-16.6604148999964" lon="-151.4169782000000">
        <time>2023-08-29T22:03:02.93748Z</time>
      </trkpt>
      <trkpt lat="-16.6603148999964" lon="-151.4168482000000">
        <time>2023-08-29T22:03:04.13748Z</time>
      </trkpt>
      <trkpt lat="-16.6602148999964" lon="-151.4167182000000">
        <time>2023-08-29T22:03:05.33748Z</time>
      </trkpt>
      <trkpt lat="-16.6601148999964" lon="-151.4165882000000">
        <time>2023-08-29T22:03:06.53748Z</time>
      </trkpt>
      <trkpt lat="-16.6600148999964" lon="-151.4164582000000">
        <time>2023-08-29T22:03:07.73748Z</time>
      </trkpt>
      <trkpt lat="-16.6599148999964" lon="-151.4163282000000">
        <time>2023-08-29T22:03:08.93748Z</time>
      </trkpt>
      <trkpt lat="-16.6598148999964" lon="-151.4161982000000">
        <time>2023-08-29T22:03:10.13748Z</time>
      </trkpt>
      <trkpt lat="-16.6597148999964" lon="-151.4160682000000">
        <time>2023-08-29T22:03:11.33748Z</time>
      </trkpt>
      <trkpt lat="-16.6596148999964" lon="-151.4159382000000">
        <time>2023-08-29T22:03:12.53748Z</time>
      </trkpt>
      <trkpt lat="-16.6595148999964" lon="-151.4158082000000">
        <time>2023-08-29T22:03:13.73748Z</time>
      </trkpt>
      <trkpt lat="-16.6594148999964" lon="-151.4156782000000">
        <time>2023-08-29T22:03:14.93748Z</time>
      </trkpt>
      <trkpt lat="-16.6593148999964" lon="-151.4155482000000">
        <time>2023-08-29T22:03:16.13748Z</time>
      </trkpt>
      <trkpt lat="-16.6592148999964" lon="-151.4154182000000">
        <time>2023-08-29T22:03:17.33748Z</time>
      </trkpt>
      <trkpt lat="-16.6591148999964" lon="-151.4152882000000">
        <time>2023-08-29T22:03:18.53748Z</time>
      </trkpt>
      <trkpt lat="-16.6590148999964" lon="-151.4151582000000">
        <time>2023-08-29T22:03:19.73748Z</time>
      </trkpt>
      <trkpt lat="-16.6589148999964" lon="-151.4150282000000">
        <time>2023-08-29T22:03:20.93748Z</time>
      </trkpt>
      <trkpt lat="-16.6588148999964" lon="-151.4148982000000">
        <time>2023-08-29T22:03:22.13748Z</time>
      </trkpt>
      <trkpt lat="-16.6587148999964" lon="-151.4147682000000">
        <time>2023-08-29T22:03:23.33748Z</time>
      </trkpt>
      <trkpt lat="-16.6586148999964" lon="-151.4146382000000">
        <time>2023-08-29T22:03:24.53748Z</time>
      </trkpt>
      <trkpt lat="-16.6585148999964" lon="-151.4145082000000">
        <time>2023-08-29T22:03:25.73748Z</time>
      </trkpt>
      <trkpt lat="-16.6584148999964" lon="-151.4143782000000">
        <time>2023-08-29T22:03:26.93748Z</time>
      </trkpt>
      <trkpt lat="-16.6583148999964" lon="-151.4142482000000">
        <time>2023-08-29T22:03:28.13748Z</time>
      </trkpt>
      <trkpt lat="-16.6582148999964" lon="-151.4141182000000">
        <time>2023-08-29T22:03:29.33748Z</time>
      </trkpt>
      <trkpt lat="-16.6581148999964" lon="-151.4139882000000">
        <time>2023-08-29T22:03:30.53748Z</time>
      </trkpt>
      <trkpt lat="-16.6580148999964" lon="-151.4138582000000">
        <time>2023-08-29T22:03:31.73748Z</time>
      </trkpt>
      <trkpt lat="-16.6579148999964" lon="-151.4137282000000">
        <time>2023-08-29T22:03:32.93748Z</time>
      </trkpt>
      <trkpt lat="-16.6578148999964" lon="-151.4135982000000">
        <time>2023-08-29T22:03:34.13748Z</time>
      </trkpt>
      <trkpt lat="-16.6577148999964" lon="-151.4134682000000">
        <time>2023-08-29T22:03:35.33748Z</time>
      </trkpt>
      <trkpt lat="-16.6576148999964" lon="-151.4133382000000">
        <time>2023-08-29T22:03:36.53748Z</time>
      </trkpt>
      <trkpt lat="-16.6575148999964" lon="-151.4132082000000">
        <time>2023-08-29T22:03:37.73748Z</time>
      </trkpt>
      <trkpt lat="-16.6574148999964" lon="-151.4130782000000">
        <time>2023-08-29T22:03:37.71348Z</time>
      </trkpt>
      <trkpt lat="-16.6573148999964" lon="-151.4129482000000">
        <time>2023-08-29T22:03:40.13748Z</time>
      </trkpt>
      <trkpt lat="-16.6572148999964" lon="-151.4128182000000">
        <time>2023-08-29T22:03:41.33748Z</time>
      </trkpt>
      <trkpt lat="-16.6571148999964" lon="-151.4126882000000">
        <time>2023-08-29T22:03:42.53748Z</time>
      </trkpt>
      <trkpt lat="-16.6570148999964" lon="-151.4125582000000">
        <time>2023-08-29T22:03:43.73748Z</time>
      </trkpt>
      <trkpt lat="-16.6569148999964" lon="-151.4124282000000">
        <time>2023-08-29T22:03:44.93748Z</time>
      </trkpt>
      <trkpt lat="-16.6568148999964" lon="-151.4122982000000">
        <time>2023-08-29T22:03:46.13748Z</time>
      </trkpt>
      <trkpt lat="-16.6567148999964" lon="-151.4121682000000">
        <time>2023-08-29T22:03:47.33748Z</time>
      </trkpt>
      <trkpt lat="-16.6566148999964" lon="-151.4120382000000">
        <time>2023-08-29T22:03:48.53748Z</time>
      </trkpt>
      <trkpt lat="-16.6565148999964" lon="-151.4119082000000">
        <time>2023-08-29T22:03:49.73748Z</time>
      </trkpt>
      <trkpt lat="-16.6564148999964" lon="-151.4117782000000">
        <time>2023-08-29T22:03:50.93748Z</time>
      </trkpt>
      <trkpt lat="-16.6563148999964" lon="-151.4116482000000">
        <time>2023-08-29T22:03:52.13748Z</time>
      </trkpt>
      <trkpt lat="-16.6562148999964" lon="-151.4115182000000">
        <time>2023-08-29T22:03:53.33748Z</time>
      </trkpt>
      <trkpt lat="-16.6561148999964" lon="-151.4113882000000">
        <time>2023-08-29T22:03:54.53748Z</time>
      </trkpt>
      <trkpt lat="-16.6560148999964" lon="-151.4112582000000">
        <time>2023-08-29T22:03:55.73748Z</time>
      </trkpt>
      <trkpt lat="-16.6559148999964" lon="-151.4111282000000">
        <time>2023-08-29T22:03:56.93748Z</time>
      </trkpt>
      <trkpt lat="-16.6558148999964" lon="-151.4109982000000">
        <time>2023-08-29T22:03:58.13748Z</time>
      </trkpt>
      <trkpt lat="-16.6557148999964" lon="-151.4108682000000">
        <time>2023-08-29T22:03:59.33748Z</time>
      </trkpt>
      <trkpt lat="-16.6556148999964" lon="-151.4107382000000">
        <time>2023-08-29T22:04:00.53748Z</time>
      </trkpt>
      <trkpt lat="-16.6555148999964" lon="-151.4106082000000">
        <time>2023-08-29T22:04:01.73748Z</time>
      </trkpt>
      <trkpt lat="-16.6554148999964" lon="-151.4104782000000">
        <time>2023-08-29T22:04:02.93748Z</time>
      </trkpt>
      <trkpt lat="-16.6553148999964" lon="-151.4103482000000">
        <time>2023-08-29T22:04:04.13748Z</time>
      </trkpt>
      <trkpt lat="-16.6552148999964" lon="-151.4102182000000">
        <time>2023-08-29T22:04:05.33748Z</time>
      </trkpt>
      <trkpt lat="-16.6551148999964" lon="-151.4100882000000">
        <time>2023-08-29T22:04:06.53748Z</time>
      </trkpt>
      <trkpt lat="-16.6550148999964" lon="-151.4099582000000">
        <time>2023-08-29T22:04:07.73748Z</time>
      </trkpt>
      <trkpt lat="-16.6549148999964" lon="-151.4098282000000">
        <time>2023-08-29T22:04:08.93748Z</time>
      </trkpt>
      <trkpt lat="-16.6548148999964" lon="-151.4096982000000">
        <time>2023-08-29T22:04:10.13748Z</time>
      </trkpt>
      <trkpt lat="-16.6547148999964" lon="-151.4095682000000">
        <time>2023-08-29T22:04:11.33748Z</time>
      </trkpt>
      <trkpt lat="-16.6546148999964" lon="-151.4094382000000">
        <time>2023-08-29T22:04:12.53748Z</time>
      </trkpt>
      <trkpt lat="-16.6545148999964" lon="-151.4093082000000">
        <time>2023-08-29T22:04:13.73748Z</time>
      </trkpt>
      <trkpt lat="-16.6544148999964" lon="-151.4091782000000">
        <time>2023-08-29T22:04:14.93748Z</time>
      </trkpt>
      <trkpt lat="-16.6543148999964" lon="-151.4090482000000">
        <time>2023-08-29T22:04:16.13748Z</time>
      </trkpt>
      <trkpt lat="-16.6542148999964" lon="-151.4089182000000">
        <time>2023-08-29T22:04:17.33748Z</time>
      </trkpt>
      <trkpt lat="-16.6541148999964" lon="-151.4087882000000">
        <time>2023-08-29T22:04:18.53748Z</time>
      </trkpt>
      <trkpt lat="-16.6540148999964" lon="-151.4086582000000">
        <time>2023-08-29T22:04:19.73748Z</time>
      </trkpt>
      <trkpt lat="-16.6539148999964" lon="-151.4085282000000">
        <time>2023-08-29T22:04:20.93748Z</time>
      </trkpt>
      <trkpt lat="-16.6538148999964" lon="-151.4083982000000">
        <time>2023-08-29T22:04:22.13748Z</time>
      </trkpt>
      <trkpt lat="-16.6537148999964" lon="-151.4082682000000">
        <time>2023-08-29T22:04:23.33748Z</time>
      </trkpt>
      <trkpt lat="-16.6536148999964" lon="-151.4081382000000">
        <time>2023-08-29T22:04:24.53748Z</time>
      </trkpt>
      <trkpt lat="-16.6535148999964" lon="-151.4080082000000">
        <time>2023-08-29T22:04:25.73748Z</time>
      </trkpt>
      <trkpt lat="-16.6534148999964" lon="-151.4078782000000">
        <time>2023-08-29T22:04:26.93748Z</time>
      </trkpt>
      <trkpt lat="-16.6533148999964" lon="-151.4077482000000">
        <time>2023-08-29T22:04:28.13748Z</time>
      </trkpt>
      <trkpt lat="-16.6532148999964" lon="-151.4076182000000">
        <time>2023-08-29T22:04:29.33748Z</time>
      </trkpt>
      <trkpt lat="-16.6531148999964" lon="-151.4074882000000">
        <time>2023-08-29T22:04:30.53748Z</time>
      </trkpt>
      <trkpt lat="-16.6530148999964" lon="-151.4073582000000">
        <time>2023-08-29T22:04:31.73748Z</time>
      </trkpt>
      <trkpt lat="-16.6529148999964" lon="-151.4072282000000">
        <time>2023-08-29T22:04:32.93748Z</time>
      </trkpt>
      <trkpt lat="-16.6528148999964" lon="-151.4070982000000">
        <time>2023-08-29T22:04:34.13748Z</time>
      </trkpt>
      <trkpt lat="-16.6527148999964" lon="-151.4069682000000">
        <time>2023-08-29T22:04:35.33748Z</time>
      </trkpt>
      <trkpt lat="-16.6526148999964" lon="-151.4068382000000">
        <time>2023-08-29T22:04:36.53748Z</time>
      </trkpt>
      <trkpt lat="-16.6525148999964" lon="-151.4067082000000">
        <time>2023-08-29T22:04:37.73748Z</time>
      </trkpt>
      <trkpt lat="-16.6524148999964" lon="-151.4065782000000">
        <time>2023-08-29T22:04:38.93748Z</time>
      </trkpt>
      <trkpt lat="-16.6523148999964" lon="-151.4064482000000">
        <time>2023-08-29T22:04:40.13748Z</time>
      </trkpt>
      <trkpt lat="-16.6522148999964" lon="-151.4063182000000">
        <time>2023-08-29T22:04:41.33748Z</time>
      </trkpt>
      <trkpt lat="-16.6521148999964" lon="-151.4061882000000">
        <time>2023-08-29T22:04:42.53748Z</time>
      </trkpt>
      <trkpt lat="-16.6520148999964" lon="-151.4060582000000">
        <time>2023-08-29T22:04:43.73748Z</time>
      </trkpt>
      <trkpt lat="-16.6519148999964" lon="-151.4059282000000">
        <time>2023-08-29T22:04:44.93748Z</time>
      </trkpt>
      <trkpt lat="-16.6518148999964" lon="-151.4057982000000">
        <time>2023-08-29T22:04:46.13748Z</time>
      </trkpt>
      <trkpt lat="-16.6517148999964" lon="-151.4056682000000">
        <time>2023-08-29T22:04:47.33748Z</time>
      </trkpt>
      <trkpt lat="-16.6516148999964" lon="-151.4055382000000">
        <time>2023-08-29T22:04:48.53748Z</time>
      </trkpt>
      <trkpt lat="-16.6515148999964" lon="-151.4054082000000">
        <time>2023-08-29T22:04:49.73748Z</time>
      </trkpt>
      <trkpt lat="-16.6514148999964" lon="-151.4052782000000">
        <time>2023-08-29T22:04:50.93748Z</time>
      </trkpt>
      <trkpt lat="-16.6513148999964" lon="-151.4051482000000">
        <time>2023-08-29T22:04:52.13748Z</time>
      </trkpt>
      <trkpt lat="-16.6512148999964" lon="-151.4050182000000">
        <time>2023-08-29T22:04:53.33748Z</time>
      </trkpt>
      <trkpt lat="-16.6511148999964" lon="-151.4048882000000">
        <time>2023-08-29T22:04:54.53748Z</time>
      </trkpt>
      <trkpt lat="-16.6510148999964" lon="-151.4047582000000">
        <time>2023-08-29T22:04:55.73748Z</time>
      </trkpt>
      <trkpt lat="-16.6509148999964" lon="-151.4046282000000">
        <time>2023-08-29T22:04:56.93748Z</time>
      </trkpt>
      <trkpt lat="-16.6508148999964" lon="-151.4044982000000">
        <time>2023-08-29T22:04:58.13748Z</time>
      </trkpt>
      <trkpt lat="-16.6507148999964" lon="-151.4043682000000">
        <time>2023-08-29T22:04:59.33748Z</time>
      </trkpt>
      <trkpt lat="-16.6506148999964" lon="-151.4042382000000">
        <time>2023-08-29T22:05:00.53748Z</time>
      </trkpt>
      <trkpt lat="-16.6505148999964" lon="-151.4041082000000">
        <time>2023-08-29T22:05:01.73748Z</time>
      </trkpt>
      <trkpt lat="-16.6504148999964" lon="-151.4039782000000">
        <time>2023-08-29T22:05:02.93748Z</time>
      </trkpt>
      <trkpt lat="-16.6503148999964" lon="-151.4038482000000">
        <time>2023-08-29T22:05:04.13748Z</time>
      </trkpt>
      <trkpt lat="-16.6502148999964" lon="-151.4037182000000">
        <time>2023-08-29T22:05:05.33748Z</time>
      </trkpt>
      <trkpt lat="-16.6501148999964" lon="-151.4035882000000">
        <time>2023-08-29T22:05:06.53748Z</time>
      </trkpt>
      <trkpt lat="-16.6500148999964" lon="-151.4034582000000">
        <time>2023-08-29T22:05:07.73748Z</time>
      </trkpt>
      <trkpt lat="-16.6499148999964" lon="-151.4033282000000">
        <time>2023-08-29T22:05:08.93748Z</time>
      </trkpt>
      <trkpt lat="-16.6498148999964" lon="-151.4031982000000">
        <time>2023-08-29T22:05:10.13748Z</time>
      </trkpt>
      <trkpt lat="-16.6497148999964" lon="-151.4030682000000">
        <time>2023-08-29T22:05:11.33748Z</time>
      </trkpt>
      <trkpt lat="-16.6496148999964" lon="-151.4029382000000">
        <time>2023-08-29T22:05:12.53748Z</time>
      </trkpt>
      <trkpt lat="-16.6495148999964" lon="-151.4028082000000">
        <time>2023-08-29T22:05:13.73748Z</time>
      </trkpt>
      <trkpt lat="-16.6494148999964" lon="-151.4026782000000">
        <time>2023-08-29T22:05:14.93748Z</time>
      </trkpt>
      <trkpt lat="-16.6493148999964" lon="-151.4025482000000">
        <time>2023-08-29T22:05:16.13748Z</time>
      </trkpt>
      <trkpt lat="-16.6492148999964" lon="-151.4024182000000">
        <time>2023-08-29T22:05:17.33748Z</time>
      </trkpt>
      <trkpt lat="-16.6491148999964" lon="-151.4022882000000">
        <time>2023-08-29T22:05:18.53748Z</time>
      </trkpt>
      <trkpt lat="-16.6490148999964" lon="-151.4021582000000">
        <time>2023-08-29T22:05:19.73748Z</time>
      </trkpt>
      <trkpt lat="-16.6489148999964" lon="-151.4020282000000">
        <time>2023-08-29T22:05:20.93748Z</time>
      </trkpt>
      <trkpt lat="-16.6488148999964" lon="-151.4018982000000">
        <time>2023-08-29T22:05:22.13748Z</time>
      </trkpt>
      <trkpt lat="-16.6487148999964" lon="-151.4017682000000">
        <time>2023-08-29T22:05:23.33748Z</time>
      </trkpt>
      <trkpt lat="-16.6486148999964" lon="-151.4016382000000">
        <time>2023-08-29T22:05:24.53748Z</time>
      </trkpt>
      <trkpt lat="-16.6485148999964" lon="-151.4015082000000">
        <time>2023-08-29T22:05:25.73748Z</time>
      </trkpt>
      <trkpt lat="-16.6484148999964" lon="-151.4013782000000">
        <time>2023-08-29T22:05:26.93748Z</time>
      </trkpt>
      <trkpt lat="-16.6483148999964" lon="-151.4012482000000">
        <time>2023-08-29T22:05:28.13748Z</time>
      </trkpt>
      <trkpt lat="-16.6482148999964" lon="-151.4011182000000">
        <time>2023-08-29T22:05:29.33748Z</time>
      </trkpt>
      <trkpt lat="-16.6481148999964" lon="-151.4009882000000">
        <time>2023-08-29T22:05:30.53748Z</time>
      </trkpt>
      <trkpt lat="-16.6480148999964" lon="-151.4008582000000">
        <time>2023-08-29T22:05:31.73748Z</time>
      </trkpt>
      <trkpt lat="-16.6479148999964" lon="-151.4007282000000">
        <time>2023-08-29T22:05:32.93748Z</time>
      </trkpt>
      <trkpt lat="-16.6478148999964" lon="-151.4005982000000">
        <time>2023-08-29T22:05:34.13748Z</time>
      </trkpt>
      <trkpt lat="-16.6477148999964" lon="-151.4004682000000">
        <time>2023-08-29T22:05:35.33748Z</time>
      </trkpt>
      <trkpt lat="-16.6476148999964" lon="-151.4003382000000">
        <time>2023-08-29T22:05:36.53748Z</time>
      </trkpt>
      <trkpt lat="-16.6475148999964" lon="-151.4002082000000">
        <time>2023-08-29T22:05:37.73748Z</time>
      </trkpt>
      <trkpt lat="-16.6474148999964" lon="-151.4000782000000">
        <time>2023-08-29T22:05:38.93748Z</time>
      </trkpt>
      <trkpt lat="-16.6473148999964" lon="-151.3999482000000">
        <time>2023-08-29T22:05:40.13748Z</time>
      </trkpt>
      <trkpt lat="-16.6472148999964" lon="-151.3998182000000">
        <time>2023-08-29T22:05:41.33748Z</time>
      </trkpt>
      <trkpt lat="-16.6471148999964" lon="-151.3996882000000">
        <time>2023-08-29T22:05:42.53748Z</time>
      </trkpt>
      <trkpt lat="-16.6470148999964" lon="-151.3995582000000">
        <time>2023-08-29T22:05:43.73748Z</time>
      </trkpt>
      <trkpt lat="-16.6469148999964" lon="-151.3994282000000">
        <time>2023-08-29T22:05:44.93748Z</time>
      </trkpt>
      <trkpt lat="-16.6468148999964" lon="-151.3992982000000">
        <time>2023-08-29T22:05:46.13748Z</time>
      </trkpt>
      <trkpt lat="-16.6467148999964" lon="-151.3991682000000">
        <time>2023-08-29T22:05:47.33748Z</time>
      </trkpt>
      <trkpt lat="-16.6466148999964" lon="-151.3990382000000">
        <time>2023-08-29T22:05:48.53748Z</time>
      </trkpt>
      <trkpt lat="-16.6465148999964" lon="-151.3989082000000">
        <time>2023-08-29T22:05:49.73748Z</time>
      </trkpt>
      <trkpt lat="-16.6464148999964" lon="-151.3987782000000">
        <time>2023-08-29T22:05:50.93748Z</time>
      </trkpt>
      <trkpt lat="-16.6463148999964" lon="-151.3986482000000">
        <time>2023-08-29T22:05:52.13748Z</time>
      </trkpt>
      <trkpt lat="-16.6462148999964" lon="-151.3985182000000">
        <time>2023-08-29T22:05:53.33748Z</time>
      </trkpt>
      <trkpt lat="-16.6461148999964" lon="-151.3983882000000">
        <time>2023-08-29T22:05:54.53748Z</time>
      </trkpt>
      <trkpt lat="-16.6460148999964" lon="-151.3982582000000">
        <time>2023-08-29T22:05:55.73748Z</time>
      </trkpt>
      <trkpt lat="-16.6459148999964" lon="-151.3981282000000">
        <time>2023-08-29T22:05:56.93748Z</time>
      </trkpt>
      <trkpt lat="-16.6458148999964" lon="-151.3979982000000">
        <time>2023-08-29T22:05:58.13748Z</time>
      </trkpt>
      <trkpt lat="-16.6457148999964" lon="-151.3978682000000">
        <time>2023-08-29T22:05:59.33748Z</time>
      </trkpt>
      <trkpt lat="-16.6456148999964" lon="-151.3977382000000">
        <time>2023-08-29T22:06:00.53748Z</time>
      </trkpt>
      <trkpt lat="-16.6455148999964" lon="-151.3976082000000">
        <time>2023-08-29T22:06:01.73748Z</time>
      </trkpt>
      <trkpt lat="-16.6454148999964" lon="-151.3974782000000">
        <time>2023-08-29T22:06:02.93748Z</time>
      </trkpt>
      <trkpt lat="-16.6453148999964" lon="-151.3973482000000">
        <time>2023-08-29T22:06:04.13748Z</time>
      </trkpt>
      <trkpt lat="-16.6452148999964" lon="-151.3972182000000">
        <time>2023-08-29T22:06:05.33748Z</time>
      </trkpt>
      <trkpt lat="-16.6451148999964" lon="-151.3970882000000">
        <time>2023-08-29T22:06:06.53748Z</time>
      </trkpt>
      <trkpt lat="-16.6450148999964" lon="-151.3969582000000">
        <time>2023-08-29T22:06:07.73748Z</time>
      </trkpt>
      <trkpt lat="-16.6449148999964" lon="-151.3968282000000">
        <time>2023-08-29T22:06:08.93748Z</time>
      </trkpt>
      <trkpt lat="-16.6448148999964" lon="-151.3966982000000">
        <time>2023-08-29T22:06:10.13748Z</time>
      </trkpt>
      <trkpt lat="-16.6447148999964" lon="-151.3965682000000">
        <time>2023-08-29T22:06:11.33748Z</time>
      </trkpt>
      <trkpt lat="-16.6446148999964" lon="-151.3964382000000">
        <time>2023-08-29T22:06:12.53748Z</time>
      </trkpt>
      <trkpt lat="-16.6445148999964" lon="-151.3963082000000">
        <time>2023-08-29T22:06:13.73748Z</time>
      </trkpt>
      <trkpt lat="-16.6444148999964" lon="-151.3961782000000">
        <time>2023-08-29T22:06:14.93748Z</time>
      </trkpt>
      <trkpt lat="-16.6443148999964" lon="-151.3960482000000">
        <time>2023-08-29T22:06:16.13748Z</time>
      </trkpt>
      <trkpt lat="-16.6442148999964" lon="-151.3959182000000">
        <time>2023-08-29T22:06:17.33748Z</time>
      </trkpt>
      <trkpt lat="-16.6441148999964" lon="-151.3957882000000">
        <time>2023-08-29T22:06:18.53748Z</time>
      </trkpt>
      <trkpt lat="-16.6440148999964" lon="-151.3956582000000">
        <time>2023-08-29T22:06:19.73748Z</time>
      </trkpt>
      <trkpt lat="-16.6439148999964" lon="-151.3955282000000">
        <time>2023-08-29T22:06:20.93748Z</time>
      </trkpt>
      <trkpt lat="-16.6438148999964" lon="-151.3953982000000">
        <time>2023-08-29T22:06:22.13748Z</time>
      </trkpt>
      <trkpt lat="-16.6437148999964" lon="-151.3952682000000">
        <time>2023-08-29T22:06:23.33748Z</time>
      </trkpt>
      <trkpt lat="-16.6436148999964" lon="-151.3951382000000">
        <time>2023-08-29T22:06:24.53748Z</time>
      </trkpt>
      <trkpt lat="-16.6435148999964" lon="-151.3950082000000">
        <time>2023-08-29T22:06:25.73748Z</time>
      </trkpt>
      <trkpt lat="-16.6434148999964" lon="-151.3948782000000">
        <time>2023-08-29T22:06:26.93748Z</time>
      </trkpt>
      <trkpt lat="-16.6433148999964" lon="-151.3947482000000">
        <time>2023-08-29T22:06:28.13748Z</time>
      </trkpt>
      <trkpt lat="-16.6432148999964" lon="-151.3946182000000">
        <time>2023-08-29T22:06:29.33748Z</time>
      </trkpt>
      <trkpt lat="-16.6431148999964" lon="-151.3944882000000">
        <time>2023-08-29T22:06:30.53748Z</time>
      </trkpt>
      <trkpt lat="-16.6430148999964" lon="-151.3943582000000">
        <time>2023-08-29T22:06:31.73748Z</time>
      </trkpt>
      <trkpt lat="-16.6429148999964" lon="-151.3942282000000">
        <time>2023-08-29T22:06:32.93748Z</time>
      </trkpt>
      <trkpt lat="-16.6428148999964" lon="-151.3940982000000">
        <time>2023-08-29T22:06:34.13748Z</time>
      </trkpt>
      <trkpt lat="-16.6427148999964" lon="-151.3939682000000">
        <time>2023-08-29T22:06:35.33748Z</time>
      </trkpt>
      <trkpt lat="-16.6426148999964" lon="-151.3938382000000">
        <time>2023-08-29T22:06:36.53748Z</time>
      </trkpt>
      <trkpt lat="-16.6425148999964" lon="-151.3937082000000">
        <time>2023-08-29T22:06:37.73748Z</time>
      </trkpt>
    </trkseg>
  </trk>
</gpx>
